
# Worst residual: 18.32 km
# MJD 59214.000000 (2020 Dec 31  0:00)
1983-020A = NORAD 13901 = ASTRON
1 13901U 83020A   20366.49919926  .00000000  00000-0  00000-0 0  7227
2 13901 046.8173 078.0336 8789881 351.5668 097.8874 00.24261617    07
